{
  "type": "FeatureCollection",
  "features": [
    {
      "type": "Feature",
      "properties": {
        "norad_id": 41581,
        "name": "INTELSAT 31 (IS-31)",
        "group": "intelsat",
        "lat": -0.013563919878832206,
        "lon": -78.65291217921536,
        "alt_km": 35782.205590030295,
        "timestamp": "2025-12-22T18:58:53.088767+00:00",
        "meta_object_name": "INTELSAT 31 (IS-31)",
        "meta_object_id": "2016-035A",
        "meta_epoch": "2025-12-22T04:09:14.897376",
        "meta_mean_motion": 1.00291043,
        "meta_eccentricity": 0.0002768,
        "meta_inclination": 0.032,
        "meta_ra_of_asc_node": 260.9833,
        "meta_arg_of_pericenter": 282.9191,
        "meta_mean_anomaly": 234.3596,
        "meta_ephemeris_type": 0,
        "meta_classification_type": "U",
        "meta_norad_cat_id": 41581,
        "meta_element_set_no": 999,
        "meta_rev_at_epoch": 3490,
        "meta_bstar": 0,
        "meta_mean_motion_dot": -1.32e-06,
        "meta_mean_motion_ddot": 0,
        "tle_line1": "1 41581U 16035A   25356.17308909 -.00000132  00000+0  00000+0 0  9997",
        "tle_line2": "2 41581   0.0320 260.9833 0002768 282.9191 234.3596  1.00291043 34900"
      },
      "geometry": {
        "type": "Point",
        "coordinates": [
          -78.65291217921536,
          -0.013563919878832206
        ]
      }
    },
    {
      "type": "Feature",
      "properties": {
        "norad_id": 41747,
        "name": "INTELSAT 36 (IS-36)",
        "group": "intelsat",
        "lat": 0.035379795587451086,
        "lon": 84.80949042894024,
        "alt_km": 35788.28834613111,
        "timestamp": "2025-12-22T18:58:53.088779+00:00",
        "meta_object_name": "INTELSAT 36 (IS-36)",
        "meta_object_id": "2016-053A",
        "meta_epoch": "2025-12-22T03:13:12.764928",
        "meta_mean_motion": 1.00270934,
        "meta_eccentricity": 9.841e-05,
        "meta_inclination": 0.0105,
        "meta_ra_of_asc_node": 357.6786,
        "meta_arg_of_pericenter": 328.626,
        "meta_mean_anomaly": 241.4387,
        "meta_ephemeris_type": 0,
        "meta_classification_type": "U",
        "meta_norad_cat_id": 41747,
        "meta_element_set_no": 999,
        "meta_rev_at_epoch": 3417,
        "meta_bstar": 0,
        "meta_mean_motion_dot": -2e-08,
        "meta_mean_motion_ddot": 0,
        "tle_line1": "1 41747U 16053A   25356.13417552 -.00000002  00000+0  00000+0 0  9998",
        "tle_line2": "2 41747   0.0105 357.6786 0000984 328.6260 241.4387  1.00270934 34171"
      },
      "geometry": {
        "type": "Point",
        "coordinates": [
          84.80949042894024,
          0.035379795587451086
        ]
      }
    },
    {
      "type": "Feature",
      "properties": {
        "norad_id": 41945,
        "name": "INTELSAT 32E (IS-32E)",
        "group": "intelsat",
        "lat": -0.036591666092064754,
        "lon": -26.88911062848475,
        "alt_km": 35785.49387717459,
        "timestamp": "2025-12-22T18:58:53.088790+00:00",
        "meta_object_name": "INTELSAT 32E (IS-32E)",
        "meta_object_id": "2017-007B",
        "meta_epoch": "2025-12-22T05:16:38.623008",
        "meta_mean_motion": 1.00267068,
        "meta_eccentricity": 7.668e-05,
        "meta_inclination": 0.0254,
        "meta_ra_of_asc_node": 68.7596,
        "meta_arg_of_pericenter": 316.2563,
        "meta_mean_anomaly": 101.9957,
        "meta_ephemeris_type": 0,
        "meta_classification_type": "U",
        "meta_norad_cat_id": 41945,
        "meta_element_set_no": 999,
        "meta_rev_at_epoch": 3245,
        "meta_bstar": 0,
        "meta_mean_motion_dot": -2.47e-06,
        "meta_mean_motion_ddot": 0,
        "tle_line1": "1 41945U 17007B   25356.21989147 -.00000247  00000+0  00000+0 0  9992",
        "tle_line2": "2 41945   0.0254  68.7596 0000766 316.2563 101.9957  1.00267068 32458"
      },
      "geometry": {
        "type": "Point",
        "coordinates": [
          -26.88911062848475,
          -0.036591666092064754
        ]
      }
    },
    {
      "type": "Feature",
      "properties": {
        "norad_id": 42818,
        "name": "INTELSAT 35E (IS-35E)",
        "group": "intelsat",
        "lat": -0.023437343857705368,
        "lon": -18.182815278381348,
        "alt_km": 35783.519812787636,
        "timestamp": "2025-12-22T18:58:53.088802+00:00",
        "meta_object_name": "INTELSAT 35E (IS-35E)",
        "meta_object_id": "2017-041A",
        "meta_epoch": "2025-12-22T06:09:10.912320",
        "meta_mean_motion": 1.00267807,
        "meta_eccentricity": 0.00019422,
        "meta_inclination": 0.022,
        "meta_ra_of_asc_node": 14.0034,
        "meta_arg_of_pericenter": 264.7914,
        "meta_mean_anomaly": 230.0647,
        "meta_ephemeris_type": 0,
        "meta_classification_type": "U",
        "meta_norad_cat_id": 42818,
        "meta_element_set_no": 999,
        "meta_rev_at_epoch": 3104,
        "meta_bstar": 0,
        "meta_mean_motion_dot": 0,
        "meta_mean_motion_ddot": 0,
        "tle_line1": "1 42818U 17041A   25356.25637630  .00000000  00000+0  00000+0 0  9997",
        "tle_line2": "2 42818   0.0220  14.0034 0001942 264.7914 230.0647  1.00267807 31041"
      },
      "geometry": {
        "type": "Point",
        "coordinates": [
          -18.182815278381348,
          -0.023437343857705368
        ]
      }
    },
    {
      "type": "Feature",
      "properties": {
        "norad_id": 42950,
        "name": "INTELSAT 37E (IS-37E)",
        "group": "intelsat",
        "lat": -0.006467160904377072,
        "lon": -1.6586704769490213,
        "alt_km": 35787.57629618534,
        "timestamp": "2025-12-22T18:58:53.088814+00:00",
        "meta_object_name": "INTELSAT 37E (IS-37E)",
        "meta_object_id": "2017-059A",
        "meta_epoch": "2025-12-22T04:31:12.793728",
        "meta_mean_motion": 1.00271851,
        "meta_eccentricity": 0.00028938,
        "meta_inclination": 0.0055,
        "meta_ra_of_asc_node": 13.5689,
        "meta_arg_of_pericenter": 247.6376,
        "meta_mean_anomaly": 239.5969,
        "meta_ephemeris_type": 0,
        "meta_classification_type": "U",
        "meta_norad_cat_id": 42950,
        "meta_element_set_no": 999,
        "meta_rev_at_epoch": 3029,
        "meta_bstar": 0,
        "meta_mean_motion_dot": -1.19e-06,
        "meta_mean_motion_ddot": 0,
        "tle_line1": "1 42950U 17059A   25356.18834252 -.00000119  00000+0  00000+0 0  9996",
        "tle_line2": "2 42950   0.0055  13.5689 0002893 247.6376 239.5969  1.00271851 30293"
      },
      "geometry": {
        "type": "Point",
        "coordinates": [
          -1.6586704769490213,
          -0.006467160904377072
        ]
      }
    },
    {
      "type": "Feature",
      "properties": {
        "norad_id": 43632,
        "name": "AZERSPACE 2 (IS-38)",
        "group": "intelsat",
        "lat": 0.03900664860302667,
        "lon": 61.420405201471915,
        "alt_km": 35790.94594950179,
        "timestamp": "2025-12-22T18:58:53.088826+00:00",
        "meta_object_name": "AZERSPACE 2 (IS-38)",
        "meta_object_id": "2018-074A",
        "meta_epoch": "2025-12-22T03:06:28.410336",
        "meta_mean_motion": 1.00270026,
        "meta_eccentricity": 0.00011749,
        "meta_inclination": 0.0187,
        "meta_ra_of_asc_node": 348.1932,
        "meta_arg_of_pericenter": 279.5458,
        "meta_mean_anomaly": 274.9316,
        "meta_ephemeris_type": 0,
        "meta_classification_type": "U",
        "meta_norad_cat_id": 43632,
        "meta_element_set_no": 999,
        "meta_rev_at_epoch": 2667,
        "meta_bstar": 0,
        "meta_mean_motion_dot": 1.59e-06,
        "meta_mean_motion_ddot": 0,
        "tle_line1": "1 43632U 18074A   25356.12949549  .00000159  00000+0  00000+0 0  9995",
        "tle_line2": "2 43632   0.0187 348.1932 0001174 279.5458 274.9316  1.00270026 26670"
      },
      "geometry": {
        "type": "Point",
        "coordinates": [
          61.420405201471915,
          0.03900664860302667
        ]
      }
    },
    {
      "type": "Feature",
      "properties": {
        "norad_id": 43633,
        "name": "HORIZONS-3E",
        "group": "intelsat",
        "lat": -0.002579962798682936,
        "lon": -174.71954726496503,
        "alt_km": 35787.931949029444,
        "timestamp": "2025-12-22T18:58:53.088837+00:00",
        "meta_object_name": "HORIZONS-3E",
        "meta_object_id": "2018-074B",
        "meta_epoch": "2025-12-22T05:24:30.190752",
        "meta_mean_motion": 1.00270178,
        "meta_eccentricity": 5.673e-05,
        "meta_inclination": 0.0097,
        "meta_ra_of_asc_node": 216.8452,
        "meta_arg_of_pericenter": 94.9387,
        "meta_mean_anomaly": 29.3592,
        "meta_ephemeris_type": 0,
        "meta_classification_type": "U",
        "meta_norad_cat_id": 43633,
        "meta_element_set_no": 999,
        "meta_rev_at_epoch": 2656,
        "meta_bstar": 0,
        "meta_mean_motion_dot": 0,
        "meta_mean_motion_ddot": 0,
        "tle_line1": "1 43633U 18074B   25356.22534943  .00000000  00000+0  00000+0 0  9990",
        "tle_line2": "2 43633   0.0097 216.8452 0000567  94.9387  29.3592  1.00270178 26568"
      },
      "geometry": {
        "type": "Point",
        "coordinates": [
          -174.71954726496503,
          -0.002579962798682936
        ]
      }
    }
  ]
}